{
    "links": {
        "self": "http://www.neowsapp.com/rest/v1/neo/3508141?api_key=iIulBulltgU6a56xZRHN4H3l9WmuAYTsLGpBGhQ2"
    },
    "id": "3508141",
    "neo_reference_id": "3508141",
    "name": "(2010 DK)",
    "designation": "2010 DK",
    "nasa_jpl_url": "http://ssd.jpl.nasa.gov/sbdb.cgi?sstr=3508141",
    "absolute_magnitude_h": 22.9,
    "estimated_diameter": {
        "kilometers": {
            "estimated_diameter_min": 0.0699125232,
            "estimated_diameter_max": 0.1563291544
        },
        "meters": {
            "estimated_diameter_min": 69.9125232246,
            "estimated_diameter_max": 156.3291544087
        },
        "miles": {
            "estimated_diameter_min": 0.0434416145,
            "estimated_diameter_max": 0.097138403
        },
        "feet": {
            "estimated_diameter_min": 229.3718026961,
            "estimated_diameter_max": 512.8909429502
        }
    },
    "is_potentially_hazardous_asteroid": false,
    "close_approach_data": [
        {
            "close_approach_date": "2010-02-09",
            "close_approach_date_full": "2010-Feb-09 07:54",
            "epoch_date_close_approach": 1265702040000,
            "relative_velocity": {
                "kilometers_per_second": "11.3872598587",
                "kilometers_per_hour": "40994.1354913387",
                "miles_per_hour": "25472.1615779377"
            },
            "miss_distance": {
                "astronomical": "0.345038663",
                "lunar": "134.220039907",
                "kilometers": "51617049.05244781",
                "miles": "32073347.020327378"
            },
            "orbiting_body": "Earth"
        }
    ],
    "orbital_data": {
        "orbit_id": "7",
        "orbit_determination_date": "2017-04-06 08:58:19",
        "first_observation_date": "2010-02-16",
        "last_observation_date": "2010-02-20",
        "data_arc_in_days": 4,
        "observations_used": 15,
        "orbit_uncertainty": "9",
        "minimum_orbit_intersection": ".333497",
        "jupiter_tisserand_invariant": "3.838",
        "epoch_osculation": "2455244.5",
        "eccentricity": ".3080238172758907",
        "semi_major_axis": "1.87189805056729",
        "inclination": "22.04274226920965",
        "ascending_node_longitude": "146.2550261879966",
        "orbital_period": "935.452445940419",
        "perihelion_distance": "1.295308867480255",
        "perihelion_argument": "331.4708534353698",
        "aphelion_distance": "2.448487233654325",
        "perihelion_time": "2455203.093265707420",
        "mean_anomaly": "15.93498890298291",
        "mean_motion": ".3848405138735713",
        "equinox": "J2000",
        "orbit_class": {
            "orbit_class_type": "AMO",
            "orbit_class_description": "Near-Earth asteroid orbits similar to that of 1221 Amor",
            "orbit_class_range": "1.017 AU < q (perihelion) < 1.3 AU"
        }
    },
    "is_sentry_object": false
}